NORAD_CAT_ID,OBJECT_NAME,OBJECT_TYPE,EPOCH,MEAN_MOTION,ECCENTRICITY,INCLINATION,RA_OF_ASC_NODE,ARG_OF_PERICENTER,MEAN_ANOMALY,BSTAR,MEAN_MOTION_DOT,MEAN_MOTION_DDOT,TLE_LINE0,TLE_LINE1,TLE_LINE2,SEMIMAJOR_AXIS,PERIOD,APOGEE,PERIGEE,DECAYED
55395.0,STARLINK-5274,PAYLOAD,2024-04-21 02:21:24,14.98313512,0.0002629,70.0038,358.0019,270.7022,89.3836,-0.00031801,-3.884e-05,0.0,0 STARLINK-5274,1 55395U 23014E   24112.09820097 -.00003884  00000-0 -31801-3 0  9993,2 55395  70.0038 358.0019 0002629 270.7022  89.3836 14.98313512 69067,6950.244,96.108,573.936,570.282,0.0
55395.0,STARLINK-5274,PAYLOAD,2024-04-21 19:58:53,14.98342627,0.0002962,70.0026,356.1487,272.7805,87.3015,0.0018544,0.00022111,0.0,0 STARLINK-5274,1 55395U 23014E   24112.83256338  .00022111  00000-0  18544-2 0  9996,2 55395  70.0026 356.1487 0002962 272.7805  87.3015 14.98342627 68237,6950.154,96.106,574.077,569.96,0.0
55395.0,STARLINK-5274,PAYLOAD,2024-04-21 21:35:01,14.9834186,0.0003072,70.0025,355.9805,274.9499,85.131,0.0016159,0.00019247,0.0,0 STARLINK-5274,1 55395U 23014E   24112.89932316  .00019247  00000-0  16159-2 0  9995,2 55395  70.0025 355.9805 0003072 274.9499  85.1310 14.98341860 69180,6950.156,96.106,574.156,569.886,0.0
55395.0,STARLINK-5274,PAYLOAD,2024-04-22 02:23:25,14.98356186,0.0002745,70.003,355.4752,274.4834,85.6011,0.0018517,0.00022086,0.0,0 STARLINK-5274,1 55395U 23014E   24113.09959964  .00022086  00000-0  18517-2 0  9991,2 55395  70.0030 355.4752 0002745 274.4834  85.6011 14.98356186 69210,6950.112,96.105,573.885,570.069,0.0
55395.0,STARLINK-5274,PAYLOAD,2024-04-22 20:00:53,14.98345819,0.0003068,70.0024,353.6251,267.776,92.3047,0.00074851,8.853e-05,0.0,0 STARLINK-5274,1 55395U 23014E   24113.83395793  .00008853  00000-0  74851-3 0  9997,2 55395  70.0024 353.6251 0003068 267.7760  92.3047 14.98345819 68381,6950.144,96.106,574.141,569.877,0.0
55395.0,STARLINK-5274,PAYLOAD,2024-04-22 21:37:02,14.98342391,0.0002927,70.0024,353.457,262.4208,97.6619,0.00066315,7.831e-05,0.0,0 STARLINK-5274,1 55395U 23014E   24113.90071805  .00007831  00000-0  66315-3 0  9991,2 55395  70.0024 353.4570 0002927 262.4208  97.6619 14.98342391 69336,6950.155,96.106,574.054,569.985,0.0
55395.0,STARLINK-5274,PAYLOAD,2024-04-23 02:25:26,14.98341128,0.0002854,70.0025,352.9513,266.2622,93.8211,0.00042636,4.999e-05,0.0,0 STARLINK-5274,1 55395U 23014E   24114.10099747  .00004999  00000-0  42636-3 0  9991,2 55395  70.0025 352.9513 0002854 266.2622  93.8211 14.98341128 68421,6950.158,96.106,574.007,570.04,0.0
55395.0,STARLINK-5274,PAYLOAD,2024-04-23 20:02:54,14.98334798,0.0003021,70.0024,351.0989,269.4334,90.6479,0.00028013,3.251e-05,0.0,0 STARLINK-5274,1 55395U 23014E   24114.83535866  .00003251  00000-0  28013-3 0  9991,2 55395  70.0024 351.0989 0003021 269.4334  90.6479 14.98334798 68537,6950.178,96.107,574.143,569.943,0.0
55395.0,STARLINK-5274,PAYLOAD,2024-04-23 21:39:02,14.98336452,0.0002726,70.003,350.9313,258.6309,101.4544,0.00026911,3.12e-05,0.0,0 STARLINK-5274,1 55395U 23014E   24114.90211804  .00003120  00000-0  26911-3 0  9992,2 55395  70.0030 350.9313 0002726 258.6309 101.4544 14.98336452 69484,6950.173,96.107,573.933,570.143,0.0
55395.0,STARLINK-5274,PAYLOAD,2024-04-24 02:27:27,14.98340867,0.0002658,70.0034,350.4265,247.3275,112.7603,0.00040876,4.789e-05,0.0,0 STARLINK-5274,1 55395U 23014E   24115.10239774  .00004789  00000-0  40876-3 0  9999,2 55395  70.0034 350.4265 0002658 247.3275 112.7603 14.98340867 69510,6950.159,96.106,573.872,570.177,0.0
55395.0,STARLINK-5274,PAYLOAD,2024-04-24 20:04:55,14.98338276,0.0002807,70.0026,348.5744,233.8826,126.2074,0.00019655,2.253e-05,0.0,0 STARLINK-5274,1 55395U 23014E   24115.83675604  .00002253  00000-0  19655-3 0  9990,2 55395  70.0026 348.5744 0002807 233.8826 126.2074 14.98338276 68689,6950.167,96.106,573.983,570.081,0.0
55395.0,STARLINK-5274,PAYLOAD,2024-04-24 21:41:04,14.98334361,0.0002963,70.0018,348.4059,264.1755,95.9066,0.00021762,2.505e-05,0.0,0 STARLINK-5274,1 55395U 23014E   24115.90351929  .00002505  00000-0  21762-3 0  9991,2 55395  70.0018 348.4059 0002963 264.1755  95.9066 14.98334361 69639,6950.179,96.107,574.104,569.985,0.0
55395.0,STARLINK-5274,PAYLOAD,2024-04-25 00:53:20,14.98338334,0.0002804,70.0022,348.0704,257.2223,102.8623,0.00028182,3.272e-05,0.0,0 STARLINK-5274,1 55395U 23014E   24116.03703821  .00003272  00000-0  28182-3 0  9993,2 55395  70.0022 348.0704 0002804 257.2223 102.8623 14.98338334 69657,6950.167,96.106,573.981,570.083,0.0
55395.0,STARLINK-5274,PAYLOAD,2024-04-25 20:06:56,14.98336607,0.0002688,70.0028,346.0513,249.0455,111.0416,0.00030982,3.606e-05,0.0,0 STARLINK-5274,1 55395U 23014E   24116.83815748  .00003606  00000-0  30982-3 0  9995,2 55395  70.0028 346.0513 0002688 249.0455 111.0416 14.98336607 68837,6950.172,96.107,573.906,570.169,0.0
55395.0,STARLINK-5274,PAYLOAD,2024-04-25 21:43:04,14.9833765,0.0002673,70.0029,345.8832,245.4504,114.6376,0.00029944,3.482e-05,0.0,0 STARLINK-5274,1 55395U 23014E   24116.90491703  .00003482  00000-0  29944-3 0  9992,2 55395  70.0029 345.8832 0002673 245.4504 114.6376 14.98337650 69786,6950.169,96.107,573.892,570.176,0.0
55395.0,STARLINK-5274,PAYLOAD,2024-04-26 08:56:01,14.98334126,0.0002154,70.0037,344.7012,274.9074,85.1839,0.00015256,1.728e-05,0.0,0 STARLINK-5274,1 55395U 23014E   24117.37223842  .00001728  00000-0  15256-3 0  9993,2 55395  70.0037 344.7012 0002154 274.9074  85.1839 14.98334126 69855,6950.18,96.107,573.542,570.548,0.0
55395.0,STARLINK-5274,PAYLOAD,2024-04-26 16:56:41,14.98332561,0.0002874,70.0017,343.8593,271.6378,88.4452,0.00018124,2.07e-05,0.0,0 STARLINK-5274,1 55395U 23014E   24117.70603848  .00002070  00000-0  18124-3 0  9996,2 55395  70.0017 343.8593 0002874 271.6378  88.4452 14.98332561 68966,6950.185,96.107,574.047,570.052,0.0
55395.0,STARLINK-5274,PAYLOAD,2024-04-27 13:46:26,14.98331463,0.0002732,70.0018,341.6734,265.224,94.8607,2.9762e-05,2.62e-06,0.0,0 STARLINK-5274,1 55395U 23014E   24118.57391547  .00000262  00000-0  29762-4 0  9994,2 55395  70.0018 341.6734 0002732 265.2240  94.8607 14.98331463 70034,6950.188,96.107,573.952,570.155,0.0
55395.0,STARLINK-5274,PAYLOAD,2024-04-27 21:47:07,14.98329054,0.0002586,70.0005,340.8306,264.6662,95.4202,8.6172e-05,9.35e-06,0.0,0 STARLINK-5274,1 55395U 23014E   24118.90772047  .00000935  00000-0  86172-4 0  9994,2 55395  70.0005 340.8306 0002586 264.6662  95.4202 14.98329054 69145,6950.196,96.107,573.858,570.263,0.0
55395.0,STARLINK-5274,PAYLOAD,2024-04-28 07:23:55,14.98329616,0.000266,70.0006,339.8206,274.8492,85.2363,1.592e-05,9.7e-07,0.0,0 STARLINK-5274,1 55395U 23014E   24119.30828097  .00000097  00000-0  15920-4 0  9998,2 55395  70.0006 339.8206 0002660 274.8492  85.2363 14.98329616 70141,6950.194,96.107,573.908,570.21,0.0
55395.0,STARLINK-5274,PAYLOAD,2024-04-28 21:49:07,14.98325164,0.0002798,69.9998,338.3048,273.0919,86.992,0.00010645,1.177e-05,0.0,0 STARLINK-5274,1 55395U 23014E   24119.90911996  .00001177  00000-0  10645-3 0  9993,2 55395  69.9998 338.3048 0002798 273.0919  86.9920 14.98325164 70234,6950.208,96.107,574.018,570.128,0.0
55395.0,STARLINK-5274,PAYLOAD,2024-04-29 01:01:23,14.98337873,0.0002617,69.9999,337.9682,271.1855,88.9004,-9.1401e-05,-1.184e-05,0.0,0 STARLINK-5274,1 55395U 23014E   24120.04263563 -.00001184  00000-0 -91401-4 0  9990,2 55395  69.9999 337.9682 0002617 271.1855  88.9004 14.98337873 69314,6950.169,96.106,573.852,570.215,0.0
55395.0,STARLINK-5274,PAYLOAD,2024-04-29 07:25:56,14.983307,0.0002761,69.9997,337.2948,269.7961,90.2882,5.8684e-05,6.07e-06,0.0,0 STARLINK-5274,1 55395U 23014E   24120.30967693  .00000607  00000-0  58684-4 0  9997,2 55395  69.9997 337.2948 0002761 269.7961  90.2882 14.98330700 70292,6950.191,96.107,573.975,570.137,0.0
55395.0,STARLINK-5274,PAYLOAD,2024-04-29 21:51:08,14.98332343,0.0002884,69.9994,335.7801,268.1461,91.9368,7.6707e-05,8.22e-06,0.0,0 STARLINK-5274,1 55395U 23014E   24120.91051421  .00000822  00000-0  76707-4 0  9992,2 55395  69.9994 335.7801 0002884 268.1461  91.9368 14.98332343 70386,6950.186,96.107,574.055,570.046,0.0
55395.0,STARLINK-5274,PAYLOAD,2024-04-30 01:03:24,14.98334266,0.0002879,69.9995,335.4433,268.3287,91.7542,9.4204e-05,1.031e-05,0.0,0 STARLINK-5274,1 55395U 23014E   24121.04403232  .00001031  00000-0  94204-4 0  9993,2 55395  69.9995 335.4433 0002879 268.3287  91.7542 14.98334266 69462,6950.18,96.107,574.046,570.044,0.0
55395.0,STARLINK-5274,PAYLOAD,2024-04-30 07:27:56,14.98330864,0.0002882,69.9996,334.77,269.3524,90.7305,5.6289e-05,5.79e-06,0.0,0 STARLINK-5274,1 55395U 23014E   24121.31107511  .00000579  00000-0  56289-4 0  9991,2 55395  69.9996 334.7700 0002882 269.3524  90.7305 14.98330864 70447,6950.19,96.107,574.058,570.052,0.0
55395.0,STARLINK-5274,PAYLOAD,2024-04-30 21:53:09,14.98330655,0.0002968,69.9993,333.2549,269.4605,90.6213,2.7267e-05,2.32e-06,0.0,0 STARLINK-5274,1 55395U 23014E   24121.91191561  .00000232  00000-0  27267-4 0  9995,2 55395  69.9993 333.2549 0002968 269.4605  90.6213 14.98330655 70530,6950.191,96.107,574.119,569.993,0.0
55395.0,STARLINK-5274,PAYLOAD,2024-04-30 23:29:17,14.98331849,0.0002955,69.9994,333.0866,269.5885,90.4936,4.0756e-05,3.93e-06,0.0,0 STARLINK-5274,1 55395U 23014E   24121.97867447  .00000393  00000-0  40756-4 0  9990,2 55395  69.9994 333.0866 0002955 269.5885  90.4936 14.98331849 69600,6950.187,96.107,574.106,569.998,0.0
55395.0,STARLINK-5274,PAYLOAD,2024-05-01 07:29:57,14.98333024,0.0002976,69.9993,332.2446,269.3737,90.7081,3.3713e-05,3.09e-06,0.0,0 STARLINK-5274,1 55395U 23014E   24122.31247340  .00000309  00000-0  33713-4 0  9995,2 55395  69.9993 332.2446 0002976 269.3737  90.7081 14.98333024 70592,6950.184,96.107,574.117,569.98,0.0
55395.0,STARLINK-5274,PAYLOAD,2024-05-01 20:19:03,14.98324786,0.0002397,69.9987,330.8965,266.9927,93.0958,-6.5672e-05,-8.76e-06,0.0,0 STARLINK-5274,1 55395U 23014E   24122.84656373 -.00000876  00000-0 -65672-4 0  9993,2 55395  69.9987 330.8965 0002397 266.9927  93.0958 14.98324786 69734,6950.209,96.107,573.74,570.408,0.0
